{
  "type": "FeatureCollection",
  "features": [
    {
      "type": "Feature",
      "properties": {
        "norad_id": 26766,
        "name": "INTELSAT 10 (IS-10)",
        "group": "intelsat",
        "lat": 7.9501720374838065,
        "lon": 127.23591751025978,
        "alt_km": 36157.147499140454,
        "timestamp": "2025-12-25T20:42:38.354557+00:00",
        "meta_object_name": "INTELSAT 10 (IS-10)",
        "meta_object_id": "2001-019A",
        "meta_epoch": "2025-12-24T19:52:43.092192",
        "meta_mean_motion": 0.9907234,
        "meta_eccentricity": 0.00079377,
        "meta_inclination": 8.6564,
        "meta_ra_of_asc_node": 61.0345,
        "meta_arg_of_pericenter": 229.6069,
        "meta_mean_anomaly": 187.8365,
        "meta_ephemeris_type": 0,
        "meta_classification_type": "U",
        "meta_norad_cat_id": 26766,
        "meta_element_set_no": 999,
        "meta_rev_at_epoch": 4385,
        "meta_bstar": 0,
        "meta_mean_motion_dot": 1.5e-07,
        "meta_mean_motion_ddot": 0,
        "tle_line1": "1 26766U 01019A   25358.82827653  .00000015  00000+0  00000+0 0  9996",
        "tle_line2": "2 26766   8.6564  61.0345 0007937 229.6069 187.8365  0.99072340 43859"
      },
      "geometry": {
        "type": "Point",
        "coordinates": [
          127.23591751025978,
          7.9501720374838065
        ]
      }
    },
    {
      "type": "Feature",
      "properties": {
        "norad_id": 26900,
        "name": "INTELSAT 902 (IS-902)",
        "group": "intelsat",
        "lat": -5.580236388843966,
        "lon": -4.830350187705623,
        "alt_km": 35788.56794691233,
        "timestamp": "2025-12-25T20:42:38.354581+00:00",
        "meta_object_name": "INTELSAT 902 (IS-902)",
        "meta_object_id": "2001-039A",
        "meta_epoch": "2025-12-15T13:09:02.081664",
        "meta_mean_motion": 1.0027087,
        "meta_eccentricity": 0.00045028,
        "meta_inclination": 5.6536,
        "meta_ra_of_asc_node": 74.0372,
        "meta_arg_of_pericenter": 189.6359,
        "meta_mean_anomaly": 327.9329,
        "meta_ephemeris_type": 0,
        "meta_classification_type": "U",
        "meta_norad_cat_id": 26900,
        "meta_element_set_no": 999,
        "meta_rev_at_epoch": 8885,
        "meta_bstar": 0,
        "meta_mean_motion_dot": -2.65e-06,
        "meta_mean_motion_ddot": 0,
        "tle_line1": "1 26900U 01039A   25349.54794076 -.00000265  00000+0  00000+0 0  9997",
        "tle_line2": "2 26900   5.6536  74.0372 0004502 189.6359 327.9329  1.00270870 88858"
      },
      "geometry": {
        "type": "Point",
        "coordinates": [
          -4.830350187705623,
          -5.580236388843966
        ]
      }
    },
    {
      "type": "Feature",
      "properties": {
        "norad_id": 27380,
        "name": "INTELSAT 904 (IS-904)",
        "group": "intelsat",
        "lat": -5.469105101499613,
        "lon": 13.97783342038414,
        "alt_km": 35781.909141777534,
        "timestamp": "2025-12-25T20:42:38.354598+00:00",
        "meta_object_name": "INTELSAT 904 (IS-904)",
        "meta_object_id": "2002-007A",
        "meta_epoch": "2025-12-24T23:13:20.404128",
        "meta_mean_motion": 1.00272977,
        "meta_eccentricity": 0.00019711,
        "meta_inclination": 6.4832,
        "meta_ra_of_asc_node": 71.2913,
        "meta_arg_of_pericenter": 246.5744,
        "meta_mean_anomaly": 92.7188,
        "meta_ephemeris_type": 0,
        "meta_classification_type": "U",
        "meta_norad_cat_id": 27380,
        "meta_element_set_no": 999,
        "meta_rev_at_epoch": 5001,
        "meta_bstar": 0,
        "meta_mean_motion_dot": -2.07e-06,
        "meta_mean_motion_ddot": 0,
        "tle_line1": "1 27380U 02007A   25358.96759727 -.00000207  00000+0  00000+0 0  9992",
        "tle_line2": "2 27380   6.4832  71.2913 0001971 246.5744  92.7188  1.00272977 50014"
      },
      "geometry": {
        "type": "Point",
        "coordinates": [
          13.97783342038414,
          -5.469105101499613
        ]
      }
    },
    {
      "type": "Feature",
      "properties": {
        "norad_id": 27426,
        "name": "DIRECTV 5 (TEMPO 1)",
        "group": "intelsat",
        "lat": -2.726601588580698,
        "lon": -64.91916291916326,
        "alt_km": 35772.73049803391,
        "timestamp": "2025-12-25T20:42:38.354612+00:00",
        "meta_object_name": "DIRECTV 5 (TEMPO 1)",
        "meta_object_id": "2002-023A",
        "meta_epoch": "2025-12-25T04:50:38.690880",
        "meta_mean_motion": 1.00271563,
        "meta_eccentricity": 0.00033428,
        "meta_inclination": 4.432,
        "meta_ra_of_asc_node": 77.5066,
        "meta_arg_of_pericenter": 204.3103,
        "meta_mean_anomaly": 134.691,
        "meta_ephemeris_type": 0,
        "meta_classification_type": "U",
        "meta_norad_cat_id": 27426,
        "meta_element_set_no": 999,
        "meta_rev_at_epoch": 8637,
        "meta_bstar": 0,
        "meta_mean_motion_dot": -3.7e-07,
        "meta_mean_motion_ddot": 0,
        "tle_line1": "1 27426U 02023A   25359.20183670 -.00000037  00000+0  00000+0 0  9998",
        "tle_line2": "2 27426   4.4320  77.5066 0003342 204.3103 134.6910  1.00271563 86375"
      },
      "geometry": {
        "type": "Point",
        "coordinates": [
          -64.91916291916326,
          -2.726601588580698
        ]
      }
    },
    {
      "type": "Feature",
      "properties": {
        "norad_id": 27438,
        "name": "INTELSAT 905 (IS-905)",
        "group": "intelsat",
        "lat": -1.7737645575317293,
        "lon": -92.00258585333128,
        "alt_km": 35774.1983900501,
        "timestamp": "2025-12-25T20:42:38.354624+00:00",
        "meta_object_name": "INTELSAT 905 (IS-905)",
        "meta_object_id": "2002-027A",
        "meta_epoch": "2025-12-23T05:41:27.377952",
        "meta_mean_motion": 1.00273243,
        "meta_eccentricity": 0.00027491,
        "meta_inclination": 6.3102,
        "meta_ra_of_asc_node": 71.9349,
        "meta_arg_of_pericenter": 206.5226,
        "meta_mean_anomaly": 121.7385,
        "meta_ephemeris_type": 0,
        "meta_classification_type": "U",
        "meta_norad_cat_id": 27438,
        "meta_element_set_no": 999,
        "meta_rev_at_epoch": 4959,
        "meta_bstar": 0,
        "meta_mean_motion_dot": 1.12e-06,
        "meta_mean_motion_ddot": 0,
        "tle_line1": "1 27438U 02027A   25357.23712243  .00000112  00000+0  00000+0 0  9993",
        "tle_line2": "2 27438   6.3102  71.9349 0002749 206.5226 121.7385  1.00273243 49592"
      },
      "geometry": {
        "type": "Point",
        "coordinates": [
          -92.00258585333128,
          -1.7737645575317293
        ]
      }
    },
    {
      "type": "Feature",
      "properties": {
        "norad_id": 27445,
        "name": "GALAXY 3C (G-3C)",
        "group": "intelsat",
        "lat": -2.5432921088051406,
        "lon": -49.62211288603067,
        "alt_km": 35790.22291512149,
        "timestamp": "2025-12-25T20:42:38.354637+00:00",
        "meta_object_name": "GALAXY 3C (G-3C)",
        "meta_object_id": "2002-030A",
        "meta_epoch": "2025-12-25T01:46:06.549024",
        "meta_mean_motion": 1.00271232,
        "meta_eccentricity": 0.000108,
        "meta_inclination": 3.2924,
        "meta_ra_of_asc_node": 80.3778,
        "meta_arg_of_pericenter": 87.2534,
        "meta_mean_anomaly": 217.8805,
        "meta_ephemeris_type": 0,
        "meta_classification_type": "U",
        "meta_norad_cat_id": 27445,
        "meta_element_set_no": 999,
        "meta_rev_at_epoch": 4474,
        "meta_bstar": 0,
        "meta_mean_motion_dot": -1.32e-06,
        "meta_mean_motion_ddot": 0,
        "tle_line1": "1 27445U 02030A   25359.07368691 -.00000132  00000+0  00000+0 0  9996",
        "tle_line2": "2 27445   3.2924  80.3778 0001080  87.2534 217.8805  1.00271232 44743"
      },
      "geometry": {
        "type": "Point",
        "coordinates": [
          -49.62211288603067,
          -2.5432921088051406
        ]
      }
    },
    {
      "type": "Feature",
      "properties": {
        "norad_id": 27513,
        "name": "INTELSAT 906 (IS-906)",
        "group": "intelsat",
        "lat": 3.038926409932791,
        "lon": 109.26837909092811,
        "alt_km": 35811.46813692224,
        "timestamp": "2025-12-25T20:42:38.354649+00:00",
        "meta_object_name": "INTELSAT 906 (IS-906)",
        "meta_object_id": "2002-041A",
        "meta_epoch": "2025-12-24T20:15:07.471872",
        "meta_mean_motion": 1.0027071,
        "meta_eccentricity": 0.0006188,
        "meta_inclination": 5.3608,
        "meta_ra_of_asc_node": 75.0877,
        "meta_arg_of_pericenter": 201.2987,
        "meta_mean_anomaly": 185.1407,
        "meta_ephemeris_type": 0,
        "meta_classification_type": "U",
        "meta_norad_cat_id": 27513,
        "meta_element_set_no": 999,
        "meta_rev_at_epoch": 8528,
        "meta_bstar": 0,
        "meta_mean_motion_dot": 3.2e-07,
        "meta_mean_motion_ddot": 0,
        "tle_line1": "1 27513U 02041A   25358.84383648  .00000032  00000+0  00000+0 0  9995",
        "tle_line2": "2 27513   5.3608  75.0877 0006188 201.2987 185.1407  1.00270710 85285"
      },
      "geometry": {
        "type": "Point",
        "coordinates": [
          109.26837909092811,
          3.038926409932791
        ]
      }
    }
  ]
}